DMSP 5D-3 F16 (USA 172) 
1 28054U 03048A   26191.59802200 -.00000043  00000+0  10744-5 0  9997
2 28054  98.9887 215.5806 0008203  82.4610  78.6366 14.14484875172799
METEOSAT-9 (MSG-2)      
1 28912U 05049B   26191.21945689  .00000126  00000+0  00000+0 0  9990
2 28912   9.4108  53.9352 0002026 358.4708   0.4202  1.00269823  7228
DMSP 5D-3 F17 (USA 191) 
1 29522U 06050A   26191.57510596 -.00000010  00000+0  17264-4 0  9993
2 29522  98.7384 197.6671 0010008 356.3082   3.8016 14.14995944 15738
FENGYUN 3A              
1 32958U 08026A   26190.74299394  .00000025  00000+0  32429-4 0  9998
2 32958  98.6887 131.1547 0009815  65.9784 294.2419 14.19575738938606
GOES 14                 
1 35491U 09033A   26191.59226656 -.00000345  00000+0  00000+0 0  9998
2 35491   1.7471  82.7532 0001906  38.8634 148.0373  1.00100484  6829
DMSP 5D-3 F18 (USA 210) 
1 35951U 09057A   26191.61868755  .00000187  00000+0  11981-3 0  9997
2 35951  98.9052 172.3385 0010960 178.3278 181.7933 14.14909656862901
EWS-G2 (GOES 15)        
1 36411U 10008A   26191.61086194  .00000030  00000+0  00000+0 0  9999
2 36411   1.3390  82.5210 0005225  53.0196  76.2692  1.00268059 59871
COMS 1                  
1 36744U 10032A   26191.06434595 -.00000223  00000+0  00000+0 0  9991
2 36744   4.8608  75.0799 0011329  14.8797 203.6336  0.99169083 51319
FENGYUN 3B              
1 37214U 10059A   26191.58693985  .00000185  00000+0  11864-3 0  9990
2 37214  98.9611 237.6995 0023047 119.0164  27.4662 14.14846320810731
SUOMI NPP               
1 37849U 11061A   26191.60090801  .00000023  00000+0  31991-4 0  9994
2 37849  98.7956 132.3176 0000583 246.0925 114.0190 14.19522057761763
METEOSAT-10 (MSG-3)     
1 38552U 12035B   26191.35284293 -.00000001  00000+0  00000+0 0  9999
2 38552   4.7237  60.9018 0001111  19.2945 335.1710  1.00269964 51087
METOP-B                 
1 38771U 12049A   26191.55939656  .00000041  00000+0  38557-4 0  9995
2 38771  98.6492 242.5909 0001051 284.6672  75.4388 14.21445542716583
INSAT-3D                
1 39216U 13038B   26191.59252656 -.00000331  00000+0  00000+0 0  9991
2 39216   1.9834  82.2471 0000502  78.8506 110.2513  1.00270716 47315
FENGYUN 3C              
1 39260U 13052A   26191.57804302  .00000023  00000+0  32872-4 0  9999
2 39260  98.4994 164.3806 0013859 320.0679  39.9476 14.15760151661873
METEOR-M 2              
1 40069U 14037A   26191.58542631 -.00000261  00000+0 -10030-3 0  9994
2 40069  98.5127 166.4962 0005426 341.8386  18.2597 14.21467259622640
HIMAWARI-8              
1 40267U 14060A   26190.88188485 -.00000264  00000+0  00000+0 0  9999
2 40267   0.0305 288.7018 0000829 203.5253 253.7182  1.00269387 42989
FENGYUN 2G              
1 40367U 14090A   26191.63067280 -.00000295  00000+0  00000+0 0  9990
2 40367   5.6942  72.5332 0004151 151.0571  31.3501  1.00262279 42234
METEOSAT-11 (MSG-4)     
1 40732U 15034A   26191.28361155  .00000069  00000+0  00000+0 0  9992
2 40732   3.2576  70.9662 0002249 352.1949 336.4015  1.00270327  7440
ELEKTRO-L 2             
1 41105U 15074A   26190.92243847 -.00000112  00000+0  00000+0 0  9998
2 41105   6.7473  70.2440 0000797 224.6641 310.5088  1.00272734 38737
SENTINEL-3A             
1 41335U 16011A   26191.56981291  .00000041  00000+0  34936-4 0  9998
2 41335  98.6239 258.6164 0001394  91.5602 268.5738 14.26738963541397
INSAT-3DR               
1 41752U 16054A   26191.58152090 -.00000067  00000+0  00000+0 0  9996
2 41752   0.0576  88.9076 0010597 181.5949 301.3513  1.00272001 36059
HIMAWARI-9              
1 41836U 16064A   26191.28447437  .00000000  00000+0  00000+0 0  9995
2 41836   0.0237  41.9433 0002433 138.5658 350.8758  1.00270260 35448
GOES 16                 
1 41866U 16071A   26191.62736954 -.00000082  00000+0  00000+0 0  9990
2 41866   0.3915  85.5258 0000519  94.1728 230.0146  1.00270935 35331
FENGYUN 4A              
1 41882U 16077A   26191.59139988 -.00000349  00000+0  00000+0 0  9990
2 41882   2.3782  80.0289 0008406 158.7958  26.3726  1.00270870 35161
CYGFM05                 
1 41884U 16078A   26191.19507238  .00019825  00000+0  25867-3 0  9996
2 41884  34.9560 108.1176 0006952 348.7784  11.2785 15.57691300532349
CYGFM04                 
1 41885U 16078B   26191.02812061  .00024931  00000+0  26662-3 0  9990
2 41885  34.9323  75.7330 0004955  27.0216 333.0768 15.62848724532577
CYGFM02                 
1 41886U 16078C   26190.98346970  .00031246  00000+0  29346-3 0  9995
2 41886  34.9401  69.8749 0005757  30.7043 329.4020 15.66077033532743
CYGFM01                 
1 41887U 16078D   26191.17349868  .00020177  00000+0  25625-3 0  9994
2 41887  34.9391 109.1272 0006861 341.9889  18.0591 15.58402965532294
CYGFM08                 
1 41888U 16078E   26191.09240925  .00023844  00000+0  27131-3 0  9998
2 41888  34.9427  88.6229 0007107  15.7318 344.3628 15.61248785532552
CYGFM07                 
1 41890U 16078G   26191.05007458  .00022776  00000+0  25831-3 0  9997
2 41890  34.9446  77.2267 0005364  28.3700 331.7317 15.61354303532571
CYGFM03                 
1 41891U 16078H   26191.02122249  .00022871  00000+0  25950-3 0  9999
2 41891  34.9400  79.3496 0005394  12.4007 347.6851 15.61340413532549
